ORBCOMM FM115           
1 41186U 15081H   24289.88350906  .00002342  00000+0  50300-3 0  9990
2 41186  46.9963 120.6557 0000574 291.8507  68.2318 14.61433147472020
ORBCOMM FM108           
1 41187U 15081J   24289.97119492  .00002692  00000+0  62680-3 0  9996
2 41187  47.0035 179.6064 0002530 255.0357 105.0249 14.57238099471160
ORBCOMM FM117           
1 41188U 15081K   24289.86884891  .00002625  00000+0  61202-3 0  9992
2 41188  46.9995 178.9327 0003114 270.9514  89.1014 14.57238818471192
ORBCOMM FM116           
1 41189U 15081L   24289.92702384  .00002441  00000+0  57181-3 0  9993
2 41189  47.0008 268.4940 0002530 347.7573  12.3250 14.57238678470019
